[{"OBJECT_NAME":"GAOFEN-9 03","OBJECT_ID":"2020-039A","EPOCH":"2026-03-09T21:55:15.121344","MEAN_MOTION":15.30529116,"ECCENTRICITY":0.0013094,"INCLINATION":97.5219,"RA_OF_ASC_NODE":201.2158,"ARG_OF_PERICENTER":77.4533,"MEAN_ANOMALY":282.8172,"EPHEMERIS_TYPE":0,"CLASSIFICATION_TYPE":"U","NORAD_CAT_ID":45794,"ELEMENT_SET_NO":999,"REV_AT_EPOCH":31856,"BSTAR":0.00039258132,"MEAN_MOTION_DOT":0.00011544,"MEAN_MOTION_DDOT":0},{"OBJECT_NAME":"STARLINK-34349","OBJECT_ID":"2025-117N","EPOCH":"2026-03-09T08:30:39.643200","MEAN_MOTION":15.30200792,"ECCENTRICITY":0.00013905,"INCLINATION":53.16,"RA_OF_ASC_NODE":41.2132,"ARG_OF_PERICENTER":100.631,"MEAN_ANOMALY":259.4847,"EPHEMERIS_TYPE":0,"CLASSIFICATION_TYPE":"U","NORAD_CAT_ID":64215,"ELEMENT_SET_NO":999,"REV_AT_EPOCH":4447,"BSTAR":0.00093324678,"MEAN_MOTION_DOT":0.00027383,"MEAN_MOTION_DDOT":0}]
